FLOCK 2P-10             
1 41612U 16040P   17232.75106025  .00002822  00000-0  12494-3 0  9993
2 41612  97.4576 295.1612 0010183 209.2078 150.8590 15.22448695 64498
FLOCK 2P-8              
1 41613U 16040Q   17232.76743249  .00003447  00000-0  15187-3 0  9996
2 41613  97.4569 295.1191 0010341 208.1531 151.9148 15.22450540 64494
FLOCK 2P-12             
1 41614U 16040R   17232.86067317  .00003782  00000-0  16634-3 0  9993
2 41614  97.4582 295.3543 0010057 207.8814 152.1885 15.22452410 64519
FLOCK 2P-7              
1 41615U 16040S   17232.82769999  .00003008  00000-0  13295-3 0  9996
2 41615  97.4568 295.1768 0010193 209.5484 150.5177 15.22451026 64501
FLOCK 2P-5              
1 41616U 16040T   17232.80576492  .00002087  00000-0  93201-4 0  9991
2 41616  97.4582 295.2740 0010067 207.4047 152.6660 15.22443663 64486
FLOCK 2P-1              
1 41617U 16040U   17232.72867300  .00003631  00000-0  15986-3 0  9993
2 41617  97.4585 295.2252 0009872 208.7657 151.3036 15.22450164 64499
FLOCK 2P-3              
1 41618U 16040V   17232.88801806  .00002093  00000-0  93483-4 0  9990
2 41618  97.4579 295.3112 0009891 208.0506 152.0199 15.22442880 64513
BEESAT-4                
1 41619U 16040W   17232.60475914  .00002103  00000-0  98035-4 0  9998
2 41619  97.4573 294.3592 0011603 195.3729 164.7155 15.20936908 52389
3CAT-2                  
1 41732U 16051B   17232.80885944  .00001490  00000-0  62340-4 0  9994
2 41732  97.3735 148.8348 0015473  50.5379 345.4427 15.25032782 56384
FLOCK 2E'-13            
1 41761U 98067KH  17232.79893267  .00012843  00000-0  15099-3 0  9990
2 41761  51.6375  65.1087 0006887 141.6399 218.5086 15.61807545 53007
FLOCK 2E'-14            
1 41762U 98067KJ  17232.77627238  .00012881  00000-0  15009-3 0  9995
2 41762  51.6387  64.9879 0006737 142.0668 218.0802 15.62037770 53002
FLOCK 2E'-16            
1 41763U 98067KK  17232.79160013  .00014082  00000-0  16028-3 0  9998
2 41763  51.6388  64.3365 0006105 151.4103 208.7227 15.62558674 52978
FLOCK 2E'-15            
1 41764U 98067KL  17232.81427765  .00013199  00000-0  15564-3 0  9994
2 41764  51.6387  65.2363 0006359 147.5343 212.6043 15.61703473 52966
FLOCK 2E'-18            
1 41769U 98067KM  17232.79799321  .00012809  00000-0  15098-3 0  9995
2 41769  51.6385  65.1209 0005335 168.1318 191.9802 15.61750641 52962
FLOCK 2E'-17            
1 41776U 98067KN  17232.78765033  .00012517  00000-0  14716-3 0  9997
2 41776  51.6393  65.0755 0005584 169.4788 190.6323 15.61842519 52954
FLOCK 2E'-19            
1 41777U 98067KP  17232.72901460  .00018419  00000-0  19055-3 0  9996
2 41777  51.6369  61.6281 0004547 169.9349 190.1738 15.64776543 52951
FLOCK 2E'-20            
1 41782U 98067KQ  17232.82495954  .00018241  00000-0  19526-3 0  9995
2 41782  51.6384  62.3031 0004621 165.1532 194.9600 15.63914444 52829
CANX-7                  
1 41788U 16059F   17232.48077765  .00003283  00000-0  61704-3 0  9995
2 41788  98.1824 293.8666 0028822 326.1986  33.7366 14.65076104 48003
ALSAT 1N                
1 41789U 16059G   17232.73453433  .00000035  00000-0  15937-4 0  9994
2 41789  98.1623 294.0480 0027522 314.7561  45.1396 14.64064686 48052
RAVAN                   
1 41849U 16067B   17232.25706448  .00000892  00000-0  82597-4 0  9991
2 41849  97.9469 311.3832 0010168  87.2821 272.9564 14.97093625 42093
CELTEE 1                
1 41850U 16067C   17232.18196739  .00000428  00000-0  42881-4 0  9998
2 41850  97.9463 311.1663 0010525  86.6932 273.5493 14.96592854 42075
OPTICUBE 04             
1 41851U 16067D   17232.52494137 -.00000180  00000-0 -10494-4 0  9992
2 41851  97.9460 311.4938 0010460  86.0030 274.2386 14.96515038 42126
AEROCUBE 8D             
1 41852U 16067E   17232.51799979  .00000358  00000-0  37111-4 0  9994
2 41852  97.9473 311.3833 0011369  86.1036 274.1484 14.96241168 42117
AEROCUBE 8C             
1 41853U 16067F   17232.45803583  .00000058  00000-0  10564-4 0  9995
2 41853  97.9472 311.3048 0011621  87.0055 273.2495 14.96203988 42106
PROMETHEUS 2-1          
1 41854U 16067G   17232.27344394  .00000327  00000-0  34415-4 0  9996
2 41854  97.9470 311.0855 0011748  87.9995 272.2571 14.96173008 42079
PROMETHEUS 2-3          
1 41855U 16067H   17232.27518087  .00000365  00000-0  37775-4 0  9993
2 41855  97.9471 311.0868 0011917  88.3750 271.8835 14.96164744 42072
LEMUR-2-XIAOQING        
1 41871U 16062C   17232.79051644  .00002571  00000-0  12325-3 0  9998
2 41871  51.6526 140.0824 0005177  91.2601  10.9753 15.22597558 40789
LEMUR-2-SOKOLSKY        
1 41872U 16062D   17232.77739990  .00003178  00000-0  14887-3 0  9993
2 41872  51.6500 139.9022 0005678 109.4043 356.0501 15.22622382 40775
LEMUR-2-ANUBHAVTHAKUR   
1 41873U 16062E   17232.79427892 -.00000436  00000-0 -45427-5 0  9993
2 41873  51.6398 140.9199 0007145 118.0498 282.7900 15.21641991 40751
LEMUR-2-WINGO           
1 41874U 16062F   17232.80175434  .00000989  00000-0  56751-4 0  9990
2 41874  51.6299 140.2484 0007861  93.7381 307.5109 15.22223347 40778
STARS-C                 
1 41895U 98067KR  17232.78731866  .00040614  00000-0  41502-3 0  9998
2 41895  51.6369  67.2840 0004525 194.9570 165.1292 15.64612933 38093
TANCREDO-1              
1 41931U 98067KT  17232.55571226  .00099691  00000-0  66882-3 0  9993
2 41931  51.6334  61.9284 0004856 178.6741 181.4272 15.74418097 33714
ITF-2                   
1 41932U 98067KU  17232.59033353  .00018507  00000-0  22387-3 0  9991
2 41932  51.6402  71.2568 0005722 148.5991 211.5345 15.60729467 33599
WASEDA-SAT3             
1 41933U 98067KV  17232.53975734  .00021649  00000-0  25301-3 0  9994
2 41933  51.6382  70.8955 0005631 151.5650 208.5652 15.61514334 33590
AOBA-VELOX 3            
1 41935U 98067KX  17232.56463149  .00021894  00000-0  25881-3 0  9996
2 41935  51.6398  71.0793 0005145 152.6819 207.4446 15.61211537 33690
TUPOD                   
1 41936U 98067KY  17232.76227254  .00351865  00000-0  11731-2 0  9996
2 41936  51.6275  54.9609 0005471 251.2530 108.7881 15.88748816 33307
OSNSAT                  
1 41939U 98067KZ  17232.74738012  .00049230  00000-0  45363-3 0  9995
2 41939  51.6367  65.5057 0005972 160.7897 199.3325 15.67106237 33034
FLOCK 3P-8              
1 41951U 17008D   17232.84083780  .00005383  00000-0  23350-3 0  9994
2 41951  97.4910 293.9674 0007406 336.9459  23.1444 15.22752430 28366
FLOCK 3P-51             
1 41952U 17008E   17232.61441727  .00003621  00000-0  15790-3 0  9991
2 41952  97.4916 293.8246 0007956 357.7091   2.4108 15.22797439 28343
FLOCK 3P-37             
1 41953U 17008F   17232.83806694  .00003730  00000-0  16064-3 0  9990
2 41953  97.4913 294.1317 0007380   2.5735 357.5538 15.23207542 28371
INS-1B                  
1 41954U 17008G   17232.57662318  .00002214  00000-0  10031-3 0  9999
2 41954  97.4886 293.5033 0008754 336.0907  23.9921 15.21898227 28263
FLOCK 3P-19             
1 41955U 17008H   17232.85618647  .00005170  00000-0  22459-3 0  9998
2 41955  97.4905 293.9373 0008236 336.0084  24.0767 15.22718509 28296
FLOCK 3P-24             
1 41956U 17008J   17232.45977031  .00006969  00000-0  30121-3 0  9992
2 41956  97.4905 293.5468 0008113 334.4997  25.5838 15.22763939 28312
FLOCK 3P-18             
1 41957U 17008K   17232.59256367  .00006933  00000-0  29949-3 0  9997
2 41957  97.4905 293.6798 0008206 334.7025  25.3809 15.22785970 28177
FLOCK 3P-22             
1 41958U 17008L   17232.59713678  .00005045  00000-0  21953-3 0  9991
2 41958  97.4907 293.6745 0008039 335.7167  24.3690 15.22677158 28168
FLOCK 3P-21             
1 41959U 17008M   17232.58592772  .00005741  00000-0  24897-3 0  9994
2 41959  97.4912 293.6991 0007901 338.5115  21.5789 15.22731858 28176
FLOCK 3P-28             
1 41960U 17008N   17232.58398202  .00005538  00000-0  24024-3 0  9994
2 41960  97.4910 293.6979 0007707 336.8920  23.1969 15.22736376 28258
FLOCK 3P-26             
1 41961U 17008P   17232.52715510  .00005592  00000-0  24278-3 0  9995
2 41961  97.4909 293.6188 0007871 336.0097  24.0771 15.22703828 28165
FLOCK 3P-17             
1 41962U 17008Q   17232.57351789  .00005104  00000-0  22153-3 0  9994
2 41962  97.4909 293.7109 0007776 339.1509  20.9409 15.22760360 28129
FLOCK 3P-27             
1 41963U 17008R   17232.79725693  .00005361  00000-0  23335-3 0  9996
2 41963  97.4909 293.8738 0007989 335.0434  25.0415 15.22635745 28207
FLOCK 3P-25             
1 41964U 17008S   17232.58809629  .00005649  00000-0  24497-3 0  9995
2 41964  97.4908 293.6880 0007642 337.2152  22.8744 15.22743266 28152
FLOCK 3P-4              
1 41965U 17008T   17232.58178304  .00005499  00000-0  23836-3 0  9994
2 41965  97.4910 293.7027 0007660 338.6031  21.4884 15.22766758 28253
FLOCK 3P-2              
1 41966U 17008U   17232.45093183  .00004596  00000-0  19997-3 0  9992
2 41966  97.4913 293.5746 0007488 337.5399  22.5509 15.22726679 28159
FLOCK 3P-1              
1 41967U 17008V   17232.52691808  .00003858  00000-0  16931-3 0  9994
2 41967  97.4915 293.6294 0007609 337.7725  22.3181 15.22540075 28160
FLOCK 3P-3              
1 41968U 17008W   17232.84751057  .00003544  00000-0  15497-3 0  9991
2 41968  97.4909 293.9599 0007557 336.0730  24.0154 15.22721039 28299
FLOCK 3P-6              
1 41969U 17008X   17232.84332252  .00003574  00000-0  15608-3 0  9991
2 41969  97.4911 293.9707 0007316 335.9455  24.1439 15.22760672 28203
FLOCK 3P-7              
1 41970U 17008Y   17232.82626337  .00003356  00000-0  14642-3 0  9996
2 41970  97.4912 293.9944 0007542 339.3793  20.7138 15.22833992 28207
FLOCK 3P-5              
1 41971U 17008Z   17232.57583936  .00002581  00000-0  11369-3 0  9998
2 41971  97.4914 293.7191 0007506 339.6851  20.4085 15.22728207 28109
FLOCK 3P-12             
1 41972U 17008AA  17232.57394644  .00002394  00000-0  10568-3 0  9997
2 41972  97.4913 293.7206 0007351 340.4237  19.6716 15.22721711 28252
